NORAD_CAT_ID,OBJECT_NAME,OBJECT_TYPE,EPOCH,MEAN_MOTION,ECCENTRICITY,INCLINATION,RA_OF_ASC_NODE,ARG_OF_PERICENTER,MEAN_ANOMALY,BSTAR,MEAN_MOTION_DOT,MEAN_MOTION_DDOT,TLE_LINE0,TLE_LINE1,TLE_LINE2,SEMIMAJOR_AXIS,PERIOD,APOGEE,PERIGEE,DECAYED
52376.0,STARLINK-3767,PAYLOAD,2024-02-26 01:28:20,15.08858666,0.0001555,53.2171,282.9129,97.2774,262.8395,0.00027925,4.161e-05,0.0,0 STARLINK-3767,1 52376U 22045AX  24057.06134774  .00004161  00000-0  27925-3 0  9996,2 52376  53.2171 282.9129 0001555  97.2774 262.8395 15.08858666103810,6917.823,95.436,540.764,538.613,0.0
52376.0,STARLINK-3767,PAYLOAD,2024-02-26 18:57:36,15.08833596,0.000219,53.215,279.6393,105.7639,254.3595,-0.00015352,-2.73e-05,0.0,0 STARLINK-3767,1 52376U 22045AX  24057.79000505 -.00002730  00000-0 -15352-3 0  9993,2 52376  53.2150 279.6393 0002190 105.7639 254.3595 15.08833596103929,6917.9,95.438,541.28,538.25,0.0
52376.0,STARLINK-3767,PAYLOAD,2024-02-26 22:08:23,15.08805155,8.6e-05,53.216,279.0392,33.1406,326.964,0.00033934,5.112e-05,0.0,0 STARLINK-3767,1 52376U 22045AX  24057.92249240  .00005112  00000-0  33934-3 0  9990,2 52376  53.2160 279.0392 0000860  33.1406 326.9640 15.08805155103940,6917.987,95.44,540.447,539.257,0.0
52376.0,STARLINK-3767,PAYLOAD,2024-02-26 23:43:46,15.08832875,0.0001419,53.2161,278.7516,97.5485,262.5668,-8.6862e-05,-1.67e-05,0.0,0 STARLINK-3767,1 52376U 22045AX  24057.98873532 -.00001670  00000-0 -86862-4 0  9999,2 52376  53.2161 278.7516 0001419  97.5485 262.5668 15.08832875103952,6917.902,95.438,540.749,538.786,0.0
52376.0,STARLINK-3767,PAYLOAD,2024-02-27 07:40:41,15.08832572,0.0001389,53.2148,277.2646,89.6138,270.5013,-0.00012557,-2.285e-05,0.0,0 STARLINK-3767,1 52376U 22045AX  24058.31992853 -.00002285  00000-0 -12557-3 0  9997,2 52376  53.2148 277.2646 0001389  89.6138 270.5013 15.08832572104002,6917.903,95.438,540.729,538.807,0.0
52376.0,STARLINK-3767,PAYLOAD,2024-02-27 20:23:46,15.0884263,0.000152,53.2141,274.8748,107.3778,252.738,-7.4902e-05,-1.48e-05,0.0,0 STARLINK-3767,1 52376U 22045AX  24058.84984448 -.00001480  00000-0 -74902-4 0  9995,2 52376  53.2141 274.8748 0001520 107.3778 252.7380 15.08842630104089,6917.872,95.437,540.789,538.686,0.0
52376.0,STARLINK-3767,PAYLOAD,2024-02-27 21:59:09,15.08843337,0.0001368,53.2147,274.5808,78.4198,281.6947,-5.0768e-05,-1.096e-05,0.0,0 STARLINK-3767,1 52376U 22045AX  24058.91608526 -.00001096  00000-0 -50768-4 0  9990,2 52376  53.2147 274.5808 0001368  78.4198 281.6947 15.08843337104099,6917.87,95.437,540.682,538.789,0.0
52376.0,STARLINK-3767,PAYLOAD,2024-02-28 13:53:01,15.08835672,0.00014,53.2145,271.611,79.8083,280.3067,0.00027357,4.068e-05,0.0,0 STARLINK-3767,1 52376U 22045AX  24059.57849294  .00004068  00000-0  27357-3 0  9999,2 52376  53.2145 271.6110 0001400  79.8083 280.3067 15.08835672104199,6917.894,95.438,540.727,538.79,0.0
52376.0,STARLINK-3767,PAYLOAD,2024-02-28 20:14:34,15.08841257,0.0001344,53.2141,270.4225,80.607,279.5074,0.00033245,5.007e-05,0.0,0 STARLINK-3767,1 52376U 22045AX  24059.84345153  .00005007  00000-0  33245-3 0  9991,2 52376  53.2141 270.4225 0001344  80.6070 279.5074 15.08841257104231,6917.877,95.437,540.671,538.812,0.0
52376.0,STARLINK-3767,PAYLOAD,2024-02-29 07:22:16,15.088447,0.00014,53.214,268.3392,84.2339,275.8813,0.00025204,3.726e-05,0.0,0 STARLINK-3767,1 52376U 22045AX  24060.30712988  .00003726  00000-0  25204-3 0  9990,2 52376  53.2140 268.3392 0001400  84.2339 275.8813 15.08844700104306,6917.866,95.437,540.7,538.763,0.0
52376.0,STARLINK-3767,PAYLOAD,2024-02-29 20:05:21,15.0884182,0.0001418,53.2147,265.96,89.8484,270.2671,0.00030642,4.592e-05,0.0,0 STARLINK-3767,1 52376U 22045AX  24060.83705176  .00004592  00000-0  30642-3 0  9993,2 52376  53.2147 265.9600 0001418  89.8484 270.2671 15.08841820104388,6917.875,95.437,540.721,538.759,0.0
52376.0,STARLINK-3767,PAYLOAD,2024-03-01 19:56:07,15.08844872,0.0001419,53.2153,261.4988,91.8535,268.2619,6.9583e-05,8.2e-06,0.0,0 STARLINK-3767,1 52376U 22045AX  24061.83064748  .00000820  00000-0  69583-4 0  9994,2 52376  53.2153 261.4988 0001419  91.8535 268.2619 15.08844872104532,6917.865,95.437,540.712,538.749,0.0
52376.0,STARLINK-3767,PAYLOAD,2024-03-02 18:11:32,15.08839866,0.0001405,53.2159,257.3366,91.2882,268.8271,5.4958e-05,5.87e-06,0.0,0 STARLINK-3767,1 52376U 22045AX  24062.75800998  .00000587  00000-0  54958-4 0  9991,2 52376  53.2159 257.3366 0001405  91.2882 268.8271 15.08839866104678,6917.881,95.438,540.718,538.774,0.0
52376.0,STARLINK-3767,PAYLOAD,2024-03-03 13:16:09,15.08841748,0.0001583,53.2156,253.7671,84.9417,275.1756,0.0001049,1.382e-05,0.0,0 STARLINK-3767,1 52376U 22045AX  24063.55288993  .00001382  00000-0  10490-3 0  9991,2 52376  53.2156 253.7671 0001583  84.9417 275.1756 15.08841748104798,6917.875,95.437,540.835,538.645,0.0
52376.0,STARLINK-3767,PAYLOAD,2024-03-03 18:02:18,15.08848408,0.0001488,53.2159,252.8735,107.9503,252.1651,0.00015723,2.216e-05,0.0,0 STARLINK-3767,1 52376U 22045AX  24063.75160318  .00002216  00000-0  15723-3 0  9994,2 52376  53.2159 252.8735 0001488 107.9503 252.1651 15.08848408104821,6917.855,95.437,540.749,538.69,0.0
52376.0,STARLINK-3767,PAYLOAD,2024-03-04 05:10:00,15.08848573,0.0001289,53.2153,250.7924,86.9081,273.2058,0.00012836,1.756e-05,0.0,0 STARLINK-3767,1 52376U 22045AX  24064.21528264  .00001756  00000-0  12836-3 0  9994,2 52376  53.2153 250.7924 0001289  86.9081 273.2058 15.08848573104893,6917.854,95.437,540.611,538.827,0.0
52376.0,STARLINK-3767,PAYLOAD,2024-03-04 13:06:56,15.08841054,0.000161,53.2167,249.3102,95.1998,264.9178,8.9782e-05,1.141e-05,0.0,0 STARLINK-3767,1 52376U 22045AX  24064.54648813  .00001141  00000-0  89782-4 0  9996,2 52376  53.2167 249.3102 0001610  95.1998 264.9178 15.08841054104940,6917.877,95.437,540.856,538.628,0.0
52376.0,STARLINK-3767,PAYLOAD,2024-03-04 19:28:28,15.08842581,0.0001509,53.2162,248.1215,100.7279,259.3883,8.6158e-05,1.084e-05,0.0,0 STARLINK-3767,1 52376U 22045AX  24064.81144631  .00001084  00000-0  86158-4 0  9995,2 52376  53.2162 248.1215 0001509 100.7279 259.3883 15.08842581104980,6917.872,95.437,540.781,538.694,0.0
52376.0,STARLINK-3767,PAYLOAD,2024-03-05 20:54:39,15.08841585,0.0001484,53.2147,243.3617,117.6559,242.4584,-4.7804e-05,-1.049e-05,0.0,0 STARLINK-3767,1 52376U 22045AX  24065.87129275 -.00001049  00000-0 -47804-4 0  9997,2 52376  53.2147 243.3617 0001484 117.6559 242.4584 15.08841585105149,6917.876,95.437,540.767,538.714,0.0
52376.0,STARLINK-3767,PAYLOAD,2024-03-06 11:13:09,15.08826352,0.0001559,53.2151,240.6854,88.475,271.642,-2.7182e-05,-7.2e-06,0.0,0 STARLINK-3767,1 52376U 22045AX  24066.46746612 -.00000720  00000-0 -27182-4 0  9995,2 52376  53.2151 240.6854 0001559  88.4750 271.6420 15.08826352105236,6917.922,95.438,540.866,538.709,0.0
52376.0,STARLINK-3767,PAYLOAD,2024-03-07 11:03:56,15.08828654,0.0001389,53.2163,236.2233,83.2943,276.8207,0.00013206,1.814e-05,0.0,0 STARLINK-3767,1 52376U 22045AX  24067.46107033  .00001814  00000-0  13206-3 0  9998,2 52376  53.2163 236.2233 0001389  83.2943 276.8207 15.08828654105382,6917.915,95.438,540.741,538.819,0.0
52376.0,STARLINK-3767,PAYLOAD,2024-03-08 04:33:10,15.0884921,0.0001382,53.2163,232.9528,81.8703,278.2446,0.00023438,3.445e-05,0.0,0 STARLINK-3767,1 52376U 22045AX  24068.18969931  .00003445  00000-0  23438-3 0  9991,2 52376  53.2163 232.9528 0001382  81.8703 278.2446 15.08849210105497,6917.852,95.437,540.673,538.761,0.0
52376.0,STARLINK-3767,PAYLOAD,2024-03-08 20:27:01,15.08864535,0.0001403,53.2151,229.9783,87.473,272.6422,0.00057405,8.866e-05,0.0,0 STARLINK-3767,1 52376U 22045AX  24068.85209500  .00008866  00000-0  57405-3 0  9997,2 52376  53.2151 229.9783 0001403  87.4730 272.6422 15.08864535105599,6917.805,95.436,540.641,538.7,0.0
52376.0,STARLINK-3767,PAYLOAD,2024-03-09 10:45:29,15.08853374,0.0002098,53.2129,227.3014,87.0958,273.0274,0.00013892,1.924e-05,0.0,0 STARLINK-3767,1 52376U 22045AX  24069.44825691  .00001924  00000-0  13892-3 0  9998,2 52376  53.2129 227.3014 0002098  87.0958 273.0274 15.08853374105681,6917.84,95.437,541.156,538.253,0.0
52376.0,STARLINK-3767,PAYLOAD,2024-03-09 20:17:48,15.08848113,0.0001262,53.2138,225.5167,91.4273,268.6864,-1.3873e-05,-5.09e-06,0.0,0 STARLINK-3767,1 52376U 22045AX  24069.84569521 -.00000509  00000-0 -13873-4 0  9999,2 52376  53.2138 225.5167 0001262  91.4273 268.6864 15.08848113105748,6917.856,95.437,540.594,538.848,0.0
52376.0,STARLINK-3767,PAYLOAD,2024-03-10 20:08:35,15.08845873,0.0001792,53.213,221.058,91.7689,268.3508,0.00016171,2.287e-05,0.0,0 STARLINK-3767,1 52376U 22045AX  24070.83929574  .00002287  00000-0  16171-3 0  9994,2 52376  53.2130 221.0580 0001792  91.7689 268.3508 15.08845873105890,6917.862,95.437,540.967,538.488,0.0
52376.0,STARLINK-3767,PAYLOAD,2024-03-11 02:30:07,15.08845831,8.72e-05,53.2095,219.8671,90.4356,269.6736,-9.409e-05,-1.785e-05,0.0,0 STARLINK-3767,1 52376U 22045AX  24071.10425295 -.00001785  00000-0 -94090-4 0  9997,2 52376  53.2095 219.8671 0000872  90.4356 269.6736 15.08845831105937,6917.863,95.437,540.331,539.124,0.0
52376.0,STARLINK-3767,PAYLOAD,2024-03-12 10:17:50,15.08835794,0.0001405,53.2107,213.9182,86.4247,273.6905,3.4062e-05,2.54e-06,0.0,0 STARLINK-3767,1 52376U 22045AX  24072.42906088  .00000254  00000-0  34062-4 0  9998,2 52376  53.2107 213.9182 0001405  86.4247 273.6905 15.08835794106133,6917.893,95.438,540.73,538.786,0.0
52376.0,STARLINK-3767,PAYLOAD,2024-03-13 02:11:42,15.08840581,0.0001394,53.2117,210.9444,83.1951,276.92,0.00010737,1.421e-05,0.0,0 STARLINK-3767,1 52376U 22045AX  24073.09146086  .00001421  00000-0  10737-3 0  9995,2 52376  53.2117 210.9444 0001394  83.1951 276.9200 15.08840581106230,6917.879,95.438,540.708,538.779,0.0
52376.0,STARLINK-3767,PAYLOAD,2024-03-13 18:05:33,15.08846212,0.0001323,53.2106,207.9708,87.1332,272.9812,0.00016987,2.417e-05,0.0,0 STARLINK-3767,1 52376U 22045AX  24073.75385778  .00002417  00000-0  16987-3 0  9990,2 52376  53.2106 207.9708 0001323  87.1332 272.9812 15.08846212106339,6917.861,95.437,540.642,538.811,0.0
